start=new Date('2023-02-09T00:00:00.000Z').valueOf();
sats=[{"OBJECT_TYPE":"PAYLOAD","REF_FRAME":"TEME","COUNTRY_CODE":"US","RA_OF_ASC_NODE":"222.5099","ELEMENT_SET_NO":"999","FILE":"3780893","REV_AT_EPOCH":"3211","GP_ID":"224859780","INCLINATION":"97.6549","TLE_LINE1":"1 53072U 22077AF  23039.57854596  .00002567  00000-0  20431-3 0  9994","MEAN_MOTION_DDOT":"0.0000000000000","ARG_OF_PERICENTER":"93.2182","DECAY_DATE":null,"MEAN_ANOMALY":"266.9276","EPOCH":"2023-02-08T13:53:06.370944","EPHEMERIS_TYPE":"0","TIME_SYSTEM":"UTC","MEAN_MOTION":"15.01273655","BSTAR":"0.00020431000000","SEMIMAJOR_AXIS":"6941.105","OBJECT_ID":"2022-077AF","CENTER_NAME":"EARTH","TLE_LINE2":"2 53072  97.6549 222.5099 0002042  93.2182 266.9276 15.01273655 32111","RCS_SIZE":"LARGE","MEAN_ELEMENT_THEORY":"SGP4","APOAPSIS":"564.387","OBJECT_NAME":"STARLINK-4344","MEAN_MOTION_DOT":"0.00002567","ECCENTRICITY":"0.00020420","SITE":"AFWTR","CLASSIFICATION_TYPE":"U","PERIAPSIS":"561.552","NORAD_CAT_ID":"53072","PERIOD":"95.919","LAUNCH_DATE":"2022-07-11"},{"MEAN_ANOMALY":"282.0810","EPHEMERIS_TYPE":"0","EPOCH":"2023-02-08T20:06:22.227264","BSTAR":"0.00001534100000","OBJECT_ID":"2022-077AG","SEMIMAJOR_AXIS":"6941.132","CENTER_NAME":"EARTH","TIME_SYSTEM":"UTC","MEAN_MOTION":"15.01264853","RCS_SIZE":"LARGE","APOAPSIS":"563.931","MEAN_ELEMENT_THEORY":"SGP4","TLE_LINE2":"2 53073  97.6538 222.7664 0001346  78.0565 282.0810 15.01264853 32159","OBJECT_NAME":"STARLINK-4346","MEAN_MOTION_DOT":"0.00000138","PERIAPSIS":"562.063","CLASSIFICATION_TYPE":"U","ECCENTRICITY":"0.00013460","SITE":"AFWTR","LAUNCH_DATE":"2022-07-11","NORAD_CAT_ID":"53073","PERIOD":"95.919","OBJECT_TYPE":"PAYLOAD","REF_FRAME":"TEME","COUNTRY_CODE":"US","RA_OF_ASC_NODE":"222.7664","REV_AT_EPOCH":"3215","FILE":"3780893","GP_ID":"224860032","ELEMENT_SET_NO":"999","INCLINATION":"97.6538","TLE_LINE1":"1 53073U 22077AG  23039.83775726  .00000138  00000-0  15341-4 0  9998","DECAY_DATE":null,"MEAN_MOTION_DDOT":"0.0000000000000","ARG_OF_PERICENTER":"78.0565"},{"EPHEMERIS_TYPE":"0","EPOCH":"2023-02-08T13:48:07.810560","MEAN_ANOMALY":"266.4719","APOAPSIS":"564.066","MEAN_ELEMENT_THEORY":"SGP4","RCS_SIZE":"LARGE","TLE_LINE2":"2 53074  97.6544 222.5086 0001565  93.6684 266.4719 15.01270391 32115","SEMIMAJOR_AXIS":"6941.115","CENTER_NAME":"EARTH","OBJECT_ID":"2022-077AH","BSTAR":"0.00010769000000","MEAN_MOTION":"15.01270391","TIME_SYSTEM":"UTC","MEAN_MOTION_DOT":"0.00001325","OBJECT_NAME":"STARLINK-4310","LAUNCH_DATE":"2022-07-11","PERIOD":"95.919","NORAD_CAT_ID":"53074","PERIAPSIS":"561.894","CLASSIFICATION_TYPE":"U","ECCENTRICITY":"0.00015650","SITE":"AFWTR","COUNTRY_CODE":"US","REF_FRAME":"TEME","OBJECT_TYPE":"PAYLOAD","GP_ID":"224860782","FILE":"3780893","REV_AT_EPOCH":"3211","ELEMENT_SET_NO":"999","RA_OF_ASC_NODE":"222.5086","DECAY_DATE":null,"ARG_OF_PERICENTER":"93.6684","MEAN_MOTION_DDOT":"0.0000000000000","TLE_LINE1":"1 53074U 22077AH  23039.57509040  .00001325  00000-0  10769-3 0  9991","INCLINATION":"97.6544"},{"RA_OF_ASC_NODE":"222.6962","ELEMENT_SET_NO":"999","GP_ID":"224859530","REV_AT_EPOCH":"3214","FILE":"3780893","REF_FRAME":"TEME","OBJECT_TYPE":"PAYLOAD","COUNTRY_CODE":"US","TLE_LINE1":"1 53075U 22077AJ  23039.76764563  .00000157  00000-0  16818-4 0  9990","INCLINATION":"97.6531","MEAN_MOTION_DDOT":"0.0000000000000","ARG_OF_PERICENTER":"80.9757","DECAY_DATE":null,"MEAN_MOTION":"15.01262045","TIME_SYSTEM":"UTC","SEMIMAJOR_AXIS":"6941.141","CENTER_NAME":"EARTH","OBJECT_ID":"2022-077AJ","BSTAR":"0.00001681800000","TLE_LINE2":"2 53075  97.6531 222.6962 0001169  80.9757 279.1600 15.01262045 32146","MEAN_ELEMENT_THEORY":"SGP4","APOAPSIS":"563.817","RCS_SIZE":"LARGE","MEAN_ANOMALY":"279.1600","EPOCH":"2023-02-08T18:25:24.582432","EPHEMERIS_TYPE":"0","SITE":"AFWTR","ECCENTRICITY":"0.00011690","CLASSIFICATION_TYPE":"U","PERIAPSIS":"562.194","PERIOD":"95.919","NORAD_CAT_ID":"53075","LAUNCH_DATE":"2022-07-11","OBJECT_NAME":"STARLINK-4348","MEAN_MOTION_DOT":"0.00000157"},{"SEMIMAJOR_AXIS":"6941.140","OBJECT_ID":"2022-077AK","CENTER_NAME":"EARTH","BSTAR":"0.00011966000000","MEAN_MOTION":"15.01262160","TIME_SYSTEM":"UTC","APOAPSIS":"563.703","MEAN_ELEMENT_THEORY":"SGP4","RCS_SIZE":"LARGE","TLE_LINE2":"2 53076  97.6543 222.7686 0001005  68.0233 292.1098 15.01262160 32154","MEAN_ANOMALY":"292.1098","EPHEMERIS_TYPE":"0","EPOCH":"2023-02-08T20:09:02.243520","PERIAPSIS":"562.308","CLASSIFICATION_TYPE":"U","SITE":"AFWTR","ECCENTRICITY":"0.00010050","LAUNCH_DATE":"2022-07-11","PERIOD":"95.919","NORAD_CAT_ID":"53076","OBJECT_NAME":"STARLINK-4347","MEAN_MOTION_DOT":"0.00001478","RA_OF_ASC_NODE":"222.7686","GP_ID":"224859281","FILE":"3780893","REV_AT_EPOCH":"3215","ELEMENT_SET_NO":"999","REF_FRAME":"TEME","OBJECT_TYPE":"PAYLOAD","COUNTRY_CODE":"US","TLE_LINE1":"1 53076U 22077AK  23039.83960930  .00001478  00000-0  11966-3 0  9990","INCLINATION":"97.6543","DECAY_DATE":null,"MEAN_MOTION_DDOT":"0.0000000000000","ARG_OF_PERICENTER":"68.0233"},{"MEAN_ANOMALY":"264.9634","EPOCH":"2023-02-08T13:34:24.735648","EPHEMERIS_TYPE":"0","MEAN_MOTION":"15.01286793","TIME_SYSTEM":"UTC","CENTER_NAME":"EARTH","SEMIMAJOR_AXIS":"6941.064","OBJECT_ID":"2022-077AL","BSTAR":"0.00022367000000","TLE_LINE2":"2 53077  97.6514 222.4959 0000868  95.1689 264.9634 15.01286793 32112","MEAN_ELEMENT_THEORY":"SGP4","APOAPSIS":"563.532","RCS_SIZE":"LARGE","OBJECT_NAME":"STARLINK-4315","MEAN_MOTION_DOT":"0.00002817","SITE":"AFWTR","ECCENTRICITY":"0.00008680","CLASSIFICATION_TYPE":"U","PERIAPSIS":"562.327","PERIOD":"95.918","NORAD_CAT_ID":"53077","LAUNCH_DATE":"2022-07-11","REF_FRAME":"TEME","OBJECT_TYPE":"PAYLOAD","COUNTRY_CODE":"US","RA_OF_ASC_NODE":"222.4959","ELEMENT_SET_NO":"999","GP_ID":"224824220","FILE":"3780324","REV_AT_EPOCH":"3211","TLE_LINE1":"1 53077U 22077AL  23039.56556407  .00002817  00000-0  22367-3 0  9996","INCLINATION":"97.6514","ARG_OF_PERICENTER":"95.1689","MEAN_MOTION_DDOT":"0.0000000000000","DECAY_DATE":null},{"PERIOD":"95.920","NORAD_CAT_ID":"53078","LAUNCH_DATE":"2022-07-11","SITE":"AFWTR","ECCENTRICITY":"0.00014530","CLASSIFICATION_TYPE":"U","PERIAPSIS":"562.047","MEAN_MOTION_DOT":"0.00003217","OBJECT_NAME":"STARLINK-4322","TLE_LINE2":"2 53078  97.6542 222.7638 0001453  92.3182 267.8208 15.01245963 32156","APOAPSIS":"564.064","MEAN_ELEMENT_THEORY":"SGP4","RCS_SIZE":"MEDIUM","MEAN_MOTION":"15.01245963","TIME_SYSTEM":"UTC","OBJECT_ID":"2022-077AM","SEMIMAJOR_AXIS":"6941.190","CENTER_NAME":"EARTH","BSTAR":"0.00025506000000","EPOCH":"2023-02-08T20:03:42.709536","EPHEMERIS_TYPE":"0","MEAN_ANOMALY":"267.8208","ARG_OF_PERICENTER":"92.3182","MEAN_MOTION_DDOT":"0.0000000000000","DECAY_DATE":null,"TLE_LINE1":"1 53078U 22077AM  23039.83591099  .00003217  00000-0  25506-3 0  9996","INCLINATION":"97.6542","ELEMENT_SET_NO":"999","GP_ID":"224860283","FILE":"3780893","REV_AT_EPOCH":"3215","RA_OF_ASC_NODE":"222.7638","COUNTRY_CODE":"US","REF_FRAME":"TEME","OBJECT_TYPE":"PAYLOAD"},{"NORAD_CAT_ID":"53079","PERIOD":"95.919","LAUNCH_DATE":"2022-07-11","SITE":"AFWTR","ECCENTRICITY":"0.00008880","CLASSIFICATION_TYPE":"U","PERIAPSIS":"562.373","MEAN_MOTION_DOT":"-0.00001316","OBJECT_NAME":"STARLINK-4327","TLE_LINE2":"2 53079  97.6521 222.7569 0000888  98.5308 261.6017 15.01267430 32159","RCS_SIZE":"LARGE","MEAN_ELEMENT_THEORY":"SGP4","APOAPSIS":"563.605","TIME_SYSTEM":"UTC","MEAN_MOTION":"15.01267430","BSTAR":"-0.00009790700000","CENTER_NAME":"EARTH","SEMIMAJOR_AXIS":"6941.124","OBJECT_ID":"2022-077AN","EPOCH":"2023-02-08T19:55:42.246048","EPHEMERIS_TYPE":"0","MEAN_ANOMALY":"261.6017","MEAN_MOTION_DDOT":"0.0000000000000","ARG_OF_PERICENTER":"98.5308","DECAY_DATE":null,"INCLINATION":"97.6521","TLE_LINE1":"1 53079U 22077AN  23039.83035007 -.00001316  00000-0 -97907-4 0  9994","ELEMENT_SET_NO":"999","REV_AT_EPOCH":"3215","FILE":"3780893","GP_ID":"224859031","RA_OF_ASC_NODE":"222.7569","COUNTRY_CODE":"US","OBJECT_TYPE":"PAYLOAD","REF_FRAME":"TEME"},{"MEAN_MOTION_DOT":"0.00007403","OBJECT_NAME":"STARLINK-4330","PERIOD":"95.921","NORAD_CAT_ID":"53080","LAUNCH_DATE":"2022-07-11","SITE":"AFWTR","ECCENTRICITY":"0.00006630","CLASSIFICATION_TYPE":"U","PERIAPSIS":"562.644","EPOCH":"2023-02-08T20:01:03.283392","EPHEMERIS_TYPE":"0","MEAN_ANOMALY":"291.4364","TLE_LINE2":"2 53080  97.6534 222.7612 0000663  68.6931 291.4364 15.01230107 32152","MEAN_ELEMENT_THEORY":"SGP4","APOAPSIS":"563.564","RCS_SIZE":"LARGE","MEAN_MOTION":"15.01230107","TIME_SYSTEM":"UTC","OBJECT_ID":"2022-077AP","SEMIMAJOR_AXIS":"6941.239","CENTER_NAME":"EARTH","BSTAR":"0.00058084000000","MEAN_MOTION_DDOT":"0.0000000000000","ARG_OF_PERICENTER":"68.6931","DECAY_DATE":null,"TLE_LINE1":"1 53080U 22077AP  23039.83406578  .00007403  00000-0  58084-3 0  9994","INCLINATION":"97.6534","COUNTRY_CODE":"US","REF_FRAME":"TEME","OBJECT_TYPE":"PAYLOAD","ELEMENT_SET_NO":"999","GP_ID":"224859781","REV_AT_EPOCH":"3215","FILE":"3780893","RA_OF_ASC_NODE":"222.7612"},{"DECAY_DATE":null,"MEAN_MOTION_DDOT":"0.0000000000000","ARG_OF_PERICENTER":"109.4910","TLE_LINE1":"1 53081U 22077AQ  23039.76023905  .00000289  00000-0  27058-4 0  9999","INCLINATION":"97.6528","COUNTRY_CODE":"US","REF_FRAME":"TEME","OBJECT_TYPE":"PAYLOAD","GP_ID":"224860033","FILE":"3780893","REV_AT_EPOCH":"3214","ELEMENT_SET_NO":"999","RA_OF_ASC_NODE":"222.6798","MEAN_MOTION_DOT":"0.00000289","OBJECT_NAME":"STARLINK-4326","LAUNCH_DATE":"2022-07-11","PERIOD":"95.919","NORAD_CAT_ID":"53081","PERIAPSIS":"562.444","CLASSIFICATION_TYPE":"U","ECCENTRICITY":"0.00007980","SITE":"AFWTR","EPHEMERIS_TYPE":"0","EPOCH":"2023-02-08T18:14:44.653920","MEAN_ANOMALY":"250.6400","MEAN_ELEMENT_THEORY":"SGP4","APOAPSIS":"563.552","RCS_SIZE":"LARGE","TLE_LINE2":"2 53081  97.6528 222.6798 0000798 109.4910 250.6400 15.01264550 32146","OBJECT_ID":"2022-077AQ","SEMIMAJOR_AXIS":"6941.133","CENTER_NAME":"EARTH","BSTAR":"0.00002705800000","MEAN_MOTION":"15.01264550","TIME_SYSTEM":"UTC"}];
